STARLINK-31234          
1 59043U 24038W   26068.21569100  .00000239  00000+0  18224-4 0  9998
2 59043  43.0028  26.4213 0000775 289.2541  70.8227 15.27568027114610
LIZZIESAT-2 (LS-2)      
1 62383U 24247G   26068.49140277  .00009388  00000+0  34517-3 0  9997
2 62383  44.9909 117.0823 0004092 327.5136  32.5495 15.28222796 67716
